STARLINK-30820          
1 58190U 23167R   26068.52241888 -.00000474  00000+0 -77075-5 0  9999
2 58190  42.9985 143.9823 0000351 241.3107 118.7709 15.27569171130965
FLOCK 4G-21             
1 62651U 25009AU  26068.19487675  .00013648  00000+0  49619-3 0  9998
2 62651  97.4032 151.1274 0000465 329.5782  30.5431 15.28381075 63677
